[{"OBJECT_NAME":"ONEWEB-0044","OBJECT_ID":"2020-008V","EPOCH":"2026-05-16T05:43:10.717536","MEAN_MOTION":13.10375461,"ECCENTRICITY":0.0002078,"INCLINATION":87.8867,"RA_OF_ASC_NODE":42.623,"ARG_OF_PERICENTER":77.0796,"MEAN_ANOMALY":283.0564,"EPHEMERIS_TYPE":0,"CLASSIFICATION_TYPE":"U","NORAD_CAT_ID":45150,"ELEMENT_SET_NO":999,"REV_AT_EPOCH":30429,"BSTAR":-0.0010195,"MEAN_MOTION_DOT":-3.43e-06,"MEAN_MOTION_DDOT":0.0},{"OBJECT_NAME":"ONEWEB-0045","OBJECT_ID":"2020-008W","EPOCH":"2026-05-16T04:41:12.682752","MEAN_MOTION":13.11416999,"ECCENTRICITY":0.0001974,"INCLINATION":87.8926,"RA_OF_ASC_NODE":27.4206,"ARG_OF_PERICENTER":79.3517,"MEAN_ANOMALY":280.7833,"EPHEMERIS_TYPE":0,"CLASSIFICATION_TYPE":"U","NORAD_CAT_ID":45151,"ELEMENT_SET_NO":999,"REV_AT_EPOCH":30621,"BSTAR":-0.0009610800000000001,"MEAN_MOTION_DOT":-3.28e-06,"MEAN_MOTION_DDOT":0.0},{"OBJECT_NAME":"ONEWEB-0047","OBJECT_ID":"2020-008X","EPOCH":"2026-05-16T05:33:36.504000","MEAN_MOTION":13.10373875,"ECCENTRICITY":0.00018,"INCLINATION":87.8865,"RA_OF_ASC_NODE":42.6242,"ARG_OF_PERICENTER":73.6007,"MEAN_ANOMALY":286.5318,"EPHEMERIS_TYPE":0,"CLASSIFICATION_TYPE":"U","NORAD_CAT_ID":45152,"ELEMENT_SET_NO":999,"REV_AT_EPOCH":30401,"BSTAR":-0.0017986,"MEAN_MOTION_DOT":-6.15e-06,"MEAN_MOTION_DDOT":0.0},{"OBJECT_NAME":"ONEWEB-0048","OBJECT_ID":"2020-008Y","EPOCH":"2026-05-16T05:26:26.174976","MEAN_MOTION":13.10372613,"ECCENTRICITY":0.0001843,"INCLINATION":87.886,"RA_OF_ASC_NODE":42.6482,"ARG_OF_PERICENTER":76.2295,"MEAN_ANOMALY":283.9038,"EPHEMERIS_TYPE":0,"CLASSIFICATION_TYPE":"U","NORAD_CAT_ID":45153,"ELEMENT_SET_NO":999,"REV_AT_EPOCH":30362,"BSTAR":-0.0017660000000000002,"MEAN_MOTION_DOT":-6.04e-06,"MEAN_MOTION_DDOT":0.0},{"OBJECT_NAME":"ONEWEB-0049","OBJECT_ID":"2020-008Z","EPOCH":"2026-05-16T05:31:01.388352","MEAN_MOTION":13.10373383,"ECCENTRICITY":0.0002003,"INCLINATION":87.8861,"RA_OF_ASC_NODE":42.6365,"ARG_OF_PERICENTER":91.3999,"MEAN_ANOMALY":268.7358,"EPHEMERIS_TYPE":0,"CLASSIFICATION_TYPE":"U","NORAD_CAT_ID":45154,"ELEMENT_SET_NO":999,"REV_AT_EPOCH":30384,"BSTAR":-0.0018452,"MEAN_MOTION_DOT":-6.31e-06,"MEAN_MOTION_DDOT":0.0},{"OBJECT_NAME":"ONEWEB-0051","OBJECT_ID":"2020-008AA","EPOCH":"2026-05-16T04:38:46.507776","MEAN_MOTION":13.1141614,"ECCENTRICITY":0.0001977,"INCLINATION":87.8921,"RA_OF_ASC_NODE":27.4307,"ARG_OF_PERICENTER":80.4834,"MEAN_ANOMALY":279.6517,"EPHEMERIS_TYPE":0,"CLASSIFICATION_TYPE":"U","NORAD_CAT_ID":45155,"ELEMENT_SET_NO":999,"REV_AT_EPOCH":30689,"BSTAR":-0.0009265600000000001,"MEAN_MOTION_DOT":-3.16e-06,"MEAN_MOTION_DDOT":0.0},{"OBJECT_NAME":"ONEWEB-0052","OBJECT_ID":"2020-008AB","EPOCH":"2026-05-16T04:10:10.401600","MEAN_MOTION":13.10375684,"ECCENTRICITY":0.0002046,"INCLINATION":87.8863,"RA_OF_ASC_NODE":42.6333,"ARG_OF_PERICENTER":91.3367,"MEAN_ANOMALY":268.7995,"EPHEMERIS_TYPE":0,"CLASSIFICATION_TYPE":"U","NORAD_CAT_ID":45156,"ELEMENT_SET_NO":999,"REV_AT_EPOCH":30374,"BSTAR":0.0006307700000000001,"MEAN_MOTION_DOT":2.33e-06,"MEAN_MOTION_DDOT":0.0},{"OBJECT_NAME":"ONEWEB-0053","OBJECT_ID":"2020-008AC","EPOCH":"2026-05-16T04:57:46.270656","MEAN_MOTION":13.1036965,"ECCENTRICITY":0.0002337,"INCLINATION":87.8851,"RA_OF_ASC_NODE":42.6499,"ARG_OF_PERICENTER":85.7795,"MEAN_ANOMALY":274.36,"EPHEMERIS_TYPE":0,"CLASSIFICATION_TYPE":"U","NORAD_CAT_ID":45157,"ELEMENT_SET_NO":999,"REV_AT_EPOCH":30372,"BSTAR":0.00017478,"MEAN_MOTION_DOT":7.4e-07,"MEAN_MOTION_DDOT":0.0},{"OBJECT_NAME":"ONEWEB-0054","OBJECT_ID":"2020-008AD","EPOCH":"2026-05-16T05:47:57.591456","MEAN_MOTION":13.1037607,"ECCENTRICITY":0.000185,"INCLINATION":87.8867,"RA_OF_ASC_NODE":42.6228,"ARG_OF_PERICENTER":80.9287,"MEAN_ANOMALY":279.205,"EPHEMERIS_TYPE":0,"CLASSIFICATION_TYPE":"U","NORAD_CAT_ID":45158,"ELEMENT_SET_NO":999,"REV_AT_EPOCH":30384,"BSTAR":-0.00069328,"MEAN_MOTION_DOT":-2.29e-06,"MEAN_MOTION_DDOT":0.0},{"OBJECT_NAME":"ONEWEB-0056","OBJECT_ID":"2020-008AE","EPOCH":"2026-05-16T05:09:49.076640","MEAN_MOTION":13.10840675,"ECCENTRICITY":0.0001639,"INCLINATION":87.8858,"RA_OF_ASC_NODE":42.6233,"ARG_OF_PERICENTER":84.5373,"MEAN_ANOMALY":275.5942,"EPHEMERIS_TYPE":0,"CLASSIFICATION_TYPE":"U","NORAD_CAT_ID":45159,"ELEMENT_SET_NO":999,"REV_AT_EPOCH":30399,"BSTAR":-0.00075818,"MEAN_MOTION_DOT":-2.54e-06,"MEAN_MOTION_DDOT":0.0},{"OBJECT_NAME":"ONEWEB-0057","OBJECT_ID":"2020-008AF","EPOCH":"2026-05-16T05:31:25.210560","MEAN_MOTION":13.1037435,"ECCENTRICITY":0.0002327,"INCLINATION":87.8859,"RA_OF_ASC_NODE":42.6322,"ARG_OF_PERICENTER":86.1064,"MEAN_ANOMALY":274.0329,"EPHEMERIS_TYPE":0,"CLASSIFICATION_TYPE":"U","NORAD_CAT_ID":45160,"ELEMENT_SET_NO":999,"REV_AT_EPOCH":30416,"BSTAR":-0.0018711,"MEAN_MOTION_DOT":-6.4e-06,"MEAN_MOTION_DDOT":0.0},{"OBJECT_NAME":"ONEWEB-0058","OBJECT_ID":"2020-008AG","EPOCH":"2026-05-16T05:12:17.844480","MEAN_MOTION":13.1037037,"ECCENTRICITY":0.0001847,"INCLINATION":87.8853,"RA_OF_ASC_NODE":42.6427,"ARG_OF_PERICENTER":72.0258,"MEAN_ANOMALY":288.1071,"EPHEMERIS_TYPE":0,"CLASSIFICATION_TYPE":"U","NORAD_CAT_ID":45161,"ELEMENT_SET_NO":999,"REV_AT_EPOCH":30423,"BSTAR":-0.0010514,"MEAN_MOTION_DOT":-3.54e-06,"MEAN_MOTION_DDOT":0.0},{"OBJECT_NAME":"ONEWEB-0059","OBJECT_ID":"2020-008AH","EPOCH":"2026-05-16T05:07:19.787808","MEAN_MOTION":13.10370775,"ECCENTRICITY":0.0002031,"INCLINATION":87.8849,"RA_OF_ASC_NODE":42.6424,"ARG_OF_PERICENTER":74.8573,"MEAN_ANOMALY":285.2779,"EPHEMERIS_TYPE":0,"CLASSIFICATION_TYPE":"U","NORAD_CAT_ID":45162,"ELEMENT_SET_NO":999,"REV_AT_EPOCH":30413,"BSTAR":-0.00071325,"MEAN_MOTION_DOT":-2.36e-06,"MEAN_MOTION_DDOT":0.0},{"OBJECT_NAME":"ONEWEB-0062","OBJECT_ID":"2020-008AJ","EPOCH":"2026-05-16T05:40:34.561632","MEAN_MOTION":13.10374273,"ECCENTRICITY":0.000166,"INCLINATION":87.8867,"RA_OF_ASC_NODE":42.6227,"ARG_OF_PERICENTER":66.9262,"MEAN_ANOMALY":293.204,"EPHEMERIS_TYPE":0,"CLASSIFICATION_TYPE":"U","NORAD_CAT_ID":45163,"ELEMENT_SET_NO":999,"REV_AT_EPOCH":30400,"BSTAR":-0.0011628,"MEAN_MOTION_DOT":-3.93e-06,"MEAN_MOTION_DDOT":0.0},{"OBJECT_NAME":"ONEWEB-0065","OBJECT_ID":"2020-008AK","EPOCH":"2026-05-16T04:38:27.962016","MEAN_MOTION":13.10371661,"ECCENTRICITY":0.0002089,"INCLINATION":87.8858,"RA_OF_ASC_NODE":42.6395,"ARG_OF_PERICENTER":89.5056,"MEAN_ANOMALY":270.631,"EPHEMERIS_TYPE":0,"CLASSIFICATION_TYPE":"U","NORAD_CAT_ID":45164,"ELEMENT_SET_NO":999,"REV_AT_EPOCH":30369,"BSTAR":0.0017166000000000002,"MEAN_MOTION_DOT":6.12e-06,"MEAN_MOTION_DDOT":0.0},{"OBJECT_NAME":"ONEWEB-0066","OBJECT_ID":"2020-020A","EPOCH":"2026-05-16T04:16:48.474048","MEAN_MOTION":13.11414755,"ECCENTRICITY":0.0001971,"INCLINATION":87.8918,"RA_OF_ASC_NODE":27.4375,"ARG_OF_PERICENTER":76.7316,"MEAN_ANOMALY":283.4032,"EPHEMERIS_TYPE":0,"CLASSIFICATION_TYPE":"U","NORAD_CAT_ID":45424,"ELEMENT_SET_NO":999,"REV_AT_EPOCH":29848,"BSTAR":-0.0011772,"MEAN_MOTION_DOT":-4.05e-06,"MEAN_MOTION_DDOT":0.0},{"OBJECT_NAME":"ONEWEB-0067","OBJECT_ID":"2020-020B","EPOCH":"2026-05-16T05:11:36.210912","MEAN_MOTION":13.11423485,"ECCENTRICITY":0.000201,"INCLINATION":87.8937,"RA_OF_ASC_NODE":27.3465,"ARG_OF_PERICENTER":85.6853,"MEAN_ANOMALY":274.4505,"EPHEMERIS_TYPE":0,"CLASSIFICATION_TYPE":"U","NORAD_CAT_ID":45425,"ELEMENT_SET_NO":999,"REV_AT_EPOCH":29854,"BSTAR":0.0014791000000000001,"MEAN_MOTION_DOT":5.37e-06,"MEAN_MOTION_DDOT":0.0},{"OBJECT_NAME":"ONEWEB-0080","OBJECT_ID":"2020-020C","EPOCH":"2026-05-16T05:10:44.383008","MEAN_MOTION":13.11419225,"ECCENTRICITY":0.0001613,"INCLINATION":87.8929,"RA_OF_ASC_NODE":27.4239,"ARG_OF_PERICENTER":72.5157,"MEAN_ANOMALY":287.6147,"EPHEMERIS_TYPE":0,"CLASSIFICATION_TYPE":"U","NORAD_CAT_ID":45426,"ELEMENT_SET_NO":999,"REV_AT_EPOCH":29851,"BSTAR":0.001433,"MEAN_MOTION_DOT":5.21e-06,"MEAN_MOTION_DDOT":0.0},{"OBJECT_NAME":"ONEWEB-0090","OBJECT_ID":"2020-020D","EPOCH":"2026-05-16T05:52:13.870272","MEAN_MOTION":13.11413812,"ECCENTRICITY":0.0001779,"INCLINATION":87.8924,"RA_OF_ASC_NODE":27.4231,"ARG_OF_PERICENTER":78.9807,"MEAN_ANOMALY":281.1521,"EPHEMERIS_TYPE":0,"CLASSIFICATION_TYPE":"U","NORAD_CAT_ID":45427,"ELEMENT_SET_NO":999,"REV_AT_EPOCH":29848,"BSTAR":-0.00020726,"MEAN_MOTION_DOT":-6.1e-07,"MEAN_MOTION_DDOT":0.0},{"OBJECT_NAME":"ONEWEB-0061","OBJECT_ID":"2020-020E","EPOCH":"2026-05-16T04:48:20.672064","MEAN_MOTION":13.11418167,"ECCENTRICITY":0.000186,"INCLINATION":87.8924,"RA_OF_ASC_NODE":27.4173,"ARG_OF_PERICENTER":79.5978,"MEAN_ANOMALY":280.5359,"EPHEMERIS_TYPE":0,"CLASSIFICATION_TYPE":"U","NORAD_CAT_ID":45428,"ELEMENT_SET_NO":999,"REV_AT_EPOCH":29843,"BSTAR":-0.0011417,"MEAN_MOTION_DOT":-3.92e-06,"MEAN_MOTION_DDOT":0.0},{"OBJECT_NAME":"ONEWEB-0081","OBJECT_ID":"2020-020F","EPOCH":"2026-05-16T04:21:41.568768","MEAN_MOTION":13.11415457,"ECCENTRICITY":0.0002013,"INCLINATION":87.8923,"RA_OF_ASC_NODE":27.4324,"ARG_OF_PERICENTER":80.0692,"MEAN_ANOMALY":280.0663,"EPHEMERIS_TYPE":0,"CLASSIFICATION_TYPE":"U","NORAD_CAT_ID":45429,"ELEMENT_SET_NO":999,"REV_AT_EPOCH":29854,"BSTAR":-0.0011369,"MEAN_MOTION_DOT":-3.9e-06,"MEAN_MOTION_DDOT":0.0},{"OBJECT_NAME":"ONEWEB-0069","OBJECT_ID":"2020-020G","EPOCH":"2026-05-16T04:18:19.696032","MEAN_MOTION":13.10857204,"ECCENTRICITY":0.0002052,"INCLINATION":87.8927,"RA_OF_ASC_NODE":27.432,"ARG_OF_PERICENTER":78.5513,"MEAN_ANOMALY":281.5845,"EPHEMERIS_TYPE":0,"CLASSIFICATION_TYPE":"U","NORAD_CAT_ID":45430,"ELEMENT_SET_NO":999,"REV_AT_EPOCH":29847,"BSTAR":-0.0013298,"MEAN_MOTION_DOT":-4.55e-06,"MEAN_MOTION_DDOT":0.0},{"OBJECT_NAME":"ONEWEB-0031","OBJECT_ID":"2020-020H","EPOCH":"2026-05-16T05:15:25.128576","MEAN_MOTION":13.1141686,"ECCENTRICITY":0.0001692,"INCLINATION":87.8914,"RA_OF_ASC_NODE":27.4349,"ARG_OF_PERICENTER":76.4819,"MEAN_ANOMALY":283.6498,"EPHEMERIS_TYPE":0,"CLASSIFICATION_TYPE":"U","NORAD_CAT_ID":45431,"ELEMENT_SET_NO":999,"REV_AT_EPOCH":29846,"BSTAR":0.0017357,"MEAN_MOTION_DOT":6.28e-06,"MEAN_MOTION_DDOT":0.0}]